{"fetched_at":"2026-03-29T16:36:15Z","count":15609,"tles":[{"name":"STARLINK-35942","line1":"1 66926U 25286B   26087.86034882  .00036469  00000+0  12374-2 0  9990","line2":"2 66926  53.1572 269.2811 0001004  66.3817 293.7289 15.30200176 18351","category":"Starlink"}]}